M17 X1.2 Y1.2 Z0.75
G90
M83
G28 ; home all axis
G1 X128 Y128 Z1 ; move to center
G29.2 S0 ; turn off bed leveling compensation

G1 Z4
G1 X33.2 Y13.2 F3600 ; move to no.1 force senor
G1 Z0.1
M400 S30 ; wait 30s
G1 Z4
G1 X134.8 Y242.8 ; move to no.2 force sensor
G1 Z0.1
M400 S30
G1 Z4
G1 X222.8 Y13.2 ; move to no.3 force sensor
G1 Z0.1
M400 S30 

; repeat
G1 Z4
G1 X33.2 Y13.2 F3600 ; move to no.1 force senor
G1 Z0.1
M400 S30 ; wait 30s
G1 Z4
G1 X134.8 Y242.8 ; move to no.2 force sensor
G1 Z0.1
M400 S30
G1 Z4
G1 X222.8 Y13.2 ; move to no.3 force sensor
G1 Z0.1
M400 S30 

G1 Z4
G1 X33.2 Y13.2 F3600 ; move to no.1 force senor
G1 Z0.1
M400 S30 ; wait 30s
G1 Z4
G1 X134.8 Y242.8 ; move to no.2 force sensor
G1 Z0.1
M400 S30
G1 Z4
G1 X222.8 Y13.2 ; move to no.3 force sensor
G1 Z0.1
M400 S30

G90
M83
G28 ; home all axis

;;;;;;;;;;;;;;;;;;;;;;;;;;;;;;;;;;;;;;;;;;;;;;;;;;;;;;;;;;;;;;;;;;;;;;;;;;;;;;;;;;;;;;;;;;;;;;;;;;;;;;;;;;;;;;;;;;;;;;;;;;;;;;;;
;;;;;;;;;;;;;;;;;;;;;;;;;;;;;;;;;;;;;;;;;;;;;;;;;;;;;;;;;;;;;;;;;;;;;;;;;;;;;;;;;;;;;;;;;;;;;;;;;;;;;;;;;;;;;;;;;;;;;;;;;;;;;;;;
;;;;;;;;;;;;;;;;;;;;;;;;;;;;;;;;;;;;;;;;;;;;;;;;;;;;;;;;;;;;;;;;;;;;;;;;;;;;;;;;;;;;;;;;;;;;;;;;;;;;;;;;;;;;;;;;;;;;;;;;;;;;;;;;
;;;;;;;;;;;;;;;;;;;;;;;;;;;;;;;;;;;;;;;;;;;;;;;;;;;;;;;;;;;;;;;;;;;;;;;;;;;;;;;;;;;;;;;;;;;;;;;;;;;;;;;;;;;;;;;;;;;;;;;;;;;;;;;;
;;;;;;;;;;;;;;;;;;;;;;;;;;;;;;;;;;;;;;;;;;;;;;;;;;;;;;;;;;;;;;;;;;;;;;;;;;;;;;;;;;;;;;;;;;;;;;;;;;;;;;;;;;;;;;;;;;;;;;;;;;;;;;;;
;;;;;;;;;;;;;;;;;;;;;;;;;;;;;;;;;;;;;;;;;;;;;;;;;;;;;;;;;;;;;;;;;;;;;;;;;;;;;;;;;;;;;;;;;;;;;;;;;;;;;;;;;;;;;;;;;;;;;;;;;;;;;;;;
;;;;;;;;;;;;;;;;;;;;;;;;;;;;;;;;;;;;;;;;;;;;;;;;;;;;;;;;;;;;;;;;;;;;;;;;;;;;;;;;;;;;;;;;;;;;;;;;;;;;;;;;;;;;;;;;;;;;;;;;;;;;;;;;
;;;;;;;;;;;;;;;;;;;;;;;;;;;;;;;;;;;;;;;;;;;;;;;;;;;;;;;;;;;;;;;;;;;;;;;;;;;;;;;;;;;;;;;;;;;;;;;;;;;;;;;;;;;;;;;;;;;;;;;;;;;;;;;;
